start=new Date('2022-04-22T00:00:00.000Z').valueOf();
sats=[{"MEAN_MOTION_DDOT":"0.0000000000000","CENTER_NAME":"EARTH","SEMIMAJOR_AXIS":"6925.350","OBJECT_ID":"2021-041AY","INCLINATION":"53.0572","ECCENTRICITY":"0.00013560","SITE":"AFETR","PERIOD":"95.592","EPHEMERIS_TYPE":"0","TIME_SYSTEM":"UTC","REV_AT_EPOCH":"5297","EPOCH":"2022-04-21T19:02:13.302528","RCS_SIZE":"LARGE","LAUNCH_DATE":"2021-05-15","MEAN_MOTION_DOT":"0.00000334","RA_OF_ASC_NODE":"1.7989","MEAN_ELEMENT_THEORY":"SGP4","TLE_LINE1":"1 48599U 21041AY  22111.79320952  .00000334  00000-0  41312-4 0  9992","TLE_LINE2":"2 48599  53.0572   1.7989 0001356  67.4594 292.6539 15.06399625 52978","COUNTRY_CODE":"US","OBJECT_NAME":"STARLINK-2274","NORAD_CAT_ID":"48599","DECAY_DATE":null,"CLASSIFICATION_TYPE":"U","ARG_OF_PERICENTER":"67.4594","PERIAPSIS":"546.276","APOAPSIS":"548.154","MEAN_MOTION":"15.06399625","FILE":"3410450","ELEMENT_SET_NO":"999","MEAN_ANOMALY":"292.6539","OBJECT_TYPE":"PAYLOAD","REF_FRAME":"TEME","BSTAR":"0.00004131200000","GP_ID":"201775075"},{"MEAN_MOTION_DDOT":"0.0000000000000","CENTER_NAME":"EARTH","SEMIMAJOR_AXIS":"6925.365","OBJECT_ID":"2021-041AZ","INCLINATION":"53.0559","ECCENTRICITY":"0.00014000","SITE":"AFETR","PERIOD":"95.592","EPHEMERIS_TYPE":"0","TIME_SYSTEM":"UTC","REV_AT_EPOCH":"5270","EPOCH":"2022-04-21T10:22:44.180256","RCS_SIZE":"LARGE","LAUNCH_DATE":"2021-05-15","MEAN_MOTION_DOT":"-0.00000211","RA_OF_ASC_NODE":"18.4118","MEAN_ELEMENT_THEORY":"SGP4","TLE_LINE1":"1 48600U 21041AZ  22111.43245579 -.00000211  00000-0  47117-5 0  9992","TLE_LINE2":"2 48600  53.0559  18.4118 0001400  84.8536 275.2612 15.06394501 52702","COUNTRY_CODE":"US","OBJECT_NAME":"STARLINK-2275","NORAD_CAT_ID":"48600","DECAY_DATE":null,"CLASSIFICATION_TYPE":"U","ARG_OF_PERICENTER":"84.8536","PERIAPSIS":"546.261","APOAPSIS":"548.200","FILE":"3410449","MEAN_MOTION":"15.06394501","ELEMENT_SET_NO":"999","OBJECT_TYPE":"PAYLOAD","REF_FRAME":"TEME","MEAN_ANOMALY":"275.2612","BSTAR":"0.00000471170000","GP_ID":"201749957"},{"APOAPSIS":"548.300","ARG_OF_PERICENTER":"66.2237","PERIAPSIS":"546.098","NORAD_CAT_ID":"48602","DECAY_DATE":null,"CLASSIFICATION_TYPE":"U","OBJECT_NAME":"STARLINK-2713","TLE_LINE1":"1 48602U 21041BB  22111.82637835  .00002714  00000-0  20099-3 0  9994","TLE_LINE2":"2 48602  53.0570   1.6536 0001590  66.2237 293.8919 15.06404706 52960","COUNTRY_CODE":"US","MEAN_ELEMENT_THEORY":"SGP4","GP_ID":"201776072","BSTAR":"0.00020099000000","REF_FRAME":"TEME","OBJECT_TYPE":"PAYLOAD","MEAN_ANOMALY":"293.8919","ELEMENT_SET_NO":"999","FILE":"3410450","MEAN_MOTION":"15.06404706","PERIOD":"95.592","SITE":"AFETR","ECCENTRICITY":"0.00015900","INCLINATION":"53.0570","SEMIMAJOR_AXIS":"6925.334","OBJECT_ID":"2021-041BB","MEAN_MOTION_DDOT":"0.0000000000000","CENTER_NAME":"EARTH","RA_OF_ASC_NODE":"1.6536","MEAN_MOTION_DOT":"0.00002714","LAUNCH_DATE":"2021-05-15","RCS_SIZE":"LARGE","EPOCH":"2022-04-21T19:49:59.089440","REV_AT_EPOCH":"5296","EPHEMERIS_TYPE":"0","TIME_SYSTEM":"UTC"},{"TLE_LINE1":"1 48603U 21041BC  22111.87197273 -.00000889  00000-0 -40793-4 0  9994","TLE_LINE2":"2 48603  53.0544 356.4448 0001430  60.7384 299.3748 15.06405309 53052","COUNTRY_CODE":"US","OBJECT_NAME":"STARLINK-2714","MEAN_ELEMENT_THEORY":"SGP4","ARG_OF_PERICENTER":"60.7384","PERIAPSIS":"546.207","APOAPSIS":"548.188","DECAY_DATE":null,"NORAD_CAT_ID":"48603","CLASSIFICATION_TYPE":"U","OBJECT_TYPE":"PAYLOAD","REF_FRAME":"TEME","MEAN_ANOMALY":"299.3748","BSTAR":"-0.00004079300000","FILE":"3410450","MEAN_MOTION":"15.06405309","ELEMENT_SET_NO":"999","GP_ID":"201774325","MEAN_MOTION_DDOT":"0.0000000000000","CENTER_NAME":"EARTH","SEMIMAJOR_AXIS":"6925.332","OBJECT_ID":"2021-041BC","SITE":"AFETR","PERIOD":"95.592","INCLINATION":"53.0544","ECCENTRICITY":"0.00014300","EPOCH":"2022-04-21T20:55:38.443872","RCS_SIZE":"LARGE","TIME_SYSTEM":"UTC","EPHEMERIS_TYPE":"0","REV_AT_EPOCH":"5305","RA_OF_ASC_NODE":"356.4448","LAUNCH_DATE":"2021-05-15","MEAN_MOTION_DOT":"-0.00000889"},{"OBJECT_NAME":"STARLINK-2757","TLE_LINE2":"2 48604  53.0556  28.2395 0001857  60.5097 299.6077 15.06407296 52574","COUNTRY_CODE":"US","TLE_LINE1":"1 48604U 21041BD  22111.47576378 -.00000031  00000-0  16806-4 0  9994","MEAN_ELEMENT_THEORY":"SGP4","APOAPSIS":"548.477","PERIAPSIS":"545.905","ARG_OF_PERICENTER":"60.5097","NORAD_CAT_ID":"48604","DECAY_DATE":null,"CLASSIFICATION_TYPE":"U","BSTAR":"0.00001680600000","OBJECT_TYPE":"PAYLOAD","REF_FRAME":"TEME","MEAN_ANOMALY":"299.6077","ELEMENT_SET_NO":"999","MEAN_MOTION":"15.06407296","FILE":"3410449","GP_ID":"201749210","OBJECT_ID":"2021-041BD","SEMIMAJOR_AXIS":"6925.326","CENTER_NAME":"EARTH","MEAN_MOTION_DDOT":"0.0000000000000","PERIOD":"95.592","SITE":"AFETR","ECCENTRICITY":"0.00018570","INCLINATION":"53.0556","RCS_SIZE":"LARGE","EPOCH":"2022-04-21T11:25:05.990592","REV_AT_EPOCH":"5257","EPHEMERIS_TYPE":"0","TIME_SYSTEM":"UTC","RA_OF_ASC_NODE":"28.2395","MEAN_MOTION_DOT":"-0.00000031","LAUNCH_DATE":"2021-05-15"},{"INCLINATION":"53.0565","ECCENTRICITY":"0.00015270","SITE":"AFETR","PERIOD":"95.592","MEAN_MOTION_DDOT":"0.0000000000000","CENTER_NAME":"EARTH","SEMIMAJOR_AXIS":"6925.348","OBJECT_ID":"2021-044A","LAUNCH_DATE":"2021-05-26","MEAN_MOTION_DOT":"-0.00001204","RA_OF_ASC_NODE":"3.4554","TIME_SYSTEM":"UTC","EPHEMERIS_TYPE":"0","REV_AT_EPOCH":"5001","EPOCH":"2022-04-21T10:15:23.866848","RCS_SIZE":"LARGE","NORAD_CAT_ID":"48638","DECAY_DATE":null,"CLASSIFICATION_TYPE":"U","ARG_OF_PERICENTER":"75.4888","PERIAPSIS":"546.155","APOAPSIS":"548.270","MEAN_ELEMENT_THEORY":"SGP4","TLE_LINE1":"1 48638U 21044A   22111.42735957 -.00001204  00000-0 -61930-4 0  9991","TLE_LINE2":"2 48638  53.0565   3.4554 0001527  75.4888 284.6271 15.06400203 50018","COUNTRY_CODE":"US","OBJECT_NAME":"STARLINK-2758","GP_ID":"201750209","FILE":"3410449","MEAN_MOTION":"15.06400203","ELEMENT_SET_NO":"999","MEAN_ANOMALY":"284.6271","OBJECT_TYPE":"PAYLOAD","REF_FRAME":"TEME","BSTAR":"-0.00006193000000"},{"SITE":"AFETR","PERIOD":"95.592","INCLINATION":"53.0567","ECCENTRICITY":"0.00016540","CENTER_NAME":"EARTH","MEAN_MOTION_DDOT":"0.0000000000000","SEMIMAJOR_AXIS":"6925.335","OBJECT_ID":"2021-044B","RA_OF_ASC_NODE":"1.4361","LAUNCH_DATE":"2021-05-26","MEAN_MOTION_DOT":"0.00000732","EPOCH":"2022-04-21T21:02:56.462496","RCS_SIZE":"LARGE","EPHEMERIS_TYPE":"0","TIME_SYSTEM":"UTC","REV_AT_EPOCH":"5008","PERIAPSIS":"546.054","ARG_OF_PERICENTER":"71.5830","APOAPSIS":"548.345","NORAD_CAT_ID":"48639","DECAY_DATE":null,"CLASSIFICATION_TYPE":"U","COUNTRY_CODE":"US","TLE_LINE2":"2 48639  53.0567   1.4361 0001654  71.5830 288.5338 15.06404563 50087","TLE_LINE1":"1 48639U 21044B   22111.87704239  .00000732  00000-0  67997-4 0  9992","OBJECT_NAME":"STARLINK-2739","MEAN_ELEMENT_THEORY":"SGP4","GP_ID":"201774830","MEAN_ANOMALY":"288.5338","OBJECT_TYPE":"PAYLOAD","REF_FRAME":"TEME","BSTAR":"0.00006799700000","MEAN_MOTION":"15.06404563","FILE":"3410450","ELEMENT_SET_NO":"999"},{"SEMIMAJOR_AXIS":"6925.338","OBJECT_ID":"2021-044C","CENTER_NAME":"EARTH","MEAN_MOTION_DDOT":"0.0000000000000","ECCENTRICITY":"0.00014830","INCLINATION":"53.0562","PERIOD":"95.592","SITE":"AFETR","REV_AT_EPOCH":"5006","EPHEMERIS_TYPE":"0","TIME_SYSTEM":"UTC","RCS_SIZE":"LARGE","EPOCH":"2022-04-21T18:39:37.741824","MEAN_MOTION_DOT":"0.00001793","LAUNCH_DATE":"2021-05-26","RA_OF_ASC_NODE":"1.8793","MEAN_ELEMENT_THEORY":"SGP4","OBJECT_NAME":"STARLINK-2736","TLE_LINE2":"2 48640  53.0562   1.8793 0001483  69.4216 290.6932 15.06403375 50063","COUNTRY_CODE":"US","TLE_LINE1":"1 48640U 21044C   22111.77752016  .00001793  00000-0  13921-3 0  9994","CLASSIFICATION_TYPE":"U","DECAY_DATE":null,"NORAD_CAT_ID":"48640","APOAPSIS":"548.230","PERIAPSIS":"546.176","ARG_OF_PERICENTER":"69.4216","ELEMENT_SET_NO":"999","MEAN_MOTION":"15.06403375","FILE":"3410450","BSTAR":"0.00013921000000","OBJECT_TYPE":"PAYLOAD","REF_FRAME":"TEME","MEAN_ANOMALY":"290.6932","GP_ID":"201775581"},{"LAUNCH_DATE":"2021-05-26","MEAN_MOTION_DOT":"0.00001898","RA_OF_ASC_NODE":"6.4105","TIME_SYSTEM":"UTC","EPHEMERIS_TYPE":"0","REV_AT_EPOCH":"5001","EPOCH":"2022-04-21T21:11:35.644416","RCS_SIZE":"LARGE","INCLINATION":"53.0549","ECCENTRICITY":"0.00016920","SITE":"AFETR","PERIOD":"95.592","MEAN_MOTION_DDOT":"0.0000000000000","CENTER_NAME":"EARTH","SEMIMAJOR_AXIS":"6925.326","OBJECT_ID":"2021-044D","GP_ID":"201775331","FILE":"3410450","MEAN_MOTION":"15.06407269","ELEMENT_SET_NO":"999","REF_FRAME":"TEME","OBJECT_TYPE":"PAYLOAD","MEAN_ANOMALY":"287.8858","BSTAR":"0.00014626000000","NORAD_CAT_ID":"48641","DECAY_DATE":null,"CLASSIFICATION_TYPE":"U","ARG_OF_PERICENTER":"72.2315","PERIAPSIS":"546.020","APOAPSIS":"548.363","MEAN_ELEMENT_THEORY":"SGP4","TLE_LINE1":"1 48641U 21044D   22111.88305144  .00001898  00000-0  14626-3 0  9992","COUNTRY_CODE":"US","TLE_LINE2":"2 48641  53.0549   6.4105 0001692  72.2315 287.8858 15.06407269 50017","OBJECT_NAME":"STARLINK-2754"},{"GP_ID":"201750710","MEAN_MOTION":"15.06406576","FILE":"3410449","ELEMENT_SET_NO":"999","MEAN_ANOMALY":"284.5156","OBJECT_TYPE":"PAYLOAD","REF_FRAME":"TEME","BSTAR":"0.00008851500000","DECAY_DATE":null,"NORAD_CAT_ID":"48642","CLASSIFICATION_TYPE":"U","ARG_OF_PERICENTER":"75.5995","PERIAPSIS":"546.183","APOAPSIS":"548.204","MEAN_ELEMENT_THEORY":"SGP4","TLE_LINE1":"1 48642U 21044E   22111.43242021  .00001037  00000-0  88515-4 0  9992","COUNTRY_CODE":"US","TLE_LINE2":"2 48642  53.0549   8.4335 0001459  75.5995 284.5156 15.06406576 49941","OBJECT_NAME":"STARLINK-2646","LAUNCH_DATE":"2021-05-26","MEAN_MOTION_DOT":"0.00001037","RA_OF_ASC_NODE":"8.4335","EPHEMERIS_TYPE":"0","TIME_SYSTEM":"UTC","REV_AT_EPOCH":"4994","EPOCH":"2022-04-21T10:22:41.106144","RCS_SIZE":"LARGE","INCLINATION":"53.0549","ECCENTRICITY":"0.00014590","SITE":"AFETR","PERIOD":"95.592","MEAN_MOTION_DDOT":"0.0000000000000","CENTER_NAME":"EARTH","SEMIMAJOR_AXIS":"6925.328","OBJECT_ID":"2021-044E"}];
